[{"CCSDS_OMM_VERS":"2.0","COMMENT":"GENERATED VIA SPACE-TRACK.ORG API","CREATION_DATE":"2019-08-11T03:47:42","ORIGINATOR":"18 SPCS","OBJECT_NAME":"GALILEO-FM3","OBJECT_ID":"2012-055A","CENTER_NAME":"EARTH","REF_FRAME":"TEME","TIME_SYSTEM":"UTC","MEAN_ELEMENT_THEORY":"SGP4","EPOCH":"2019-08-10T12:26:15.592128","MEAN_MOTION":"1.70473818","ECCENTRICITY":"0.00043140","INCLINATION":"54.9394","RA_OF_ASC_NODE":"170.3735","ARG_OF_PERICENTER":"271.2574","MEAN_ANOMALY":"88.6502","EPHEMERIS_TYPE":"0","CLASSIFICATION_TYPE":"U","NORAD_CAT_ID":"38857","ELEMENT_SET_NO":"999","REV_AT_EPOCH":"4249","BSTAR":"0.00000000000000","MEAN_MOTION_DOT":"-0.00000009","MEAN_MOTION_DDOT":"0.0000000000000","SEMIMAJOR_AXIS":"29600.341","PERIOD":"844.704","APOAPSIS":"23234.975","PERIAPSIS":"23209.436","OBJECT_TYPE":"PAYLOAD","RCS_SIZE":"LARGE","COUNTRY_CODE":"ESA","LAUNCH_DATE":"2012-10-12","SITE":"FRGUI","DECAY_DATE":null,"FILE":"2534570","GP_ID":"136679741","TLE_LINE0":"0 GALILEO-FM3","TLE_LINE1":"1 38857U 12055A   19222.51823602 -.00000009 +00000-0 +00000-0 0  9997","TLE_LINE2":"2 38857 054.9394 170.3735 0004314 271.2574 088.6502 01.70473818042490"},{"CCSDS_OMM_VERS":"2.0","COMMENT":"GENERATED VIA SPACE-TRACK.ORG API","CREATION_DATE":"2019-08-11T06:20:15","ORIGINATOR":"18 SPCS","OBJECT_NAME":"GALILEO-FM3","OBJECT_ID":"2012-055A","CENTER_NAME":"EARTH","REF_FRAME":"TEME","TIME_SYSTEM":"UTC","MEAN_ELEMENT_THEORY":"SGP4","EPOCH":"2019-08-10T12:26:15.592128","MEAN_MOTION":"1.70473818","ECCENTRICITY":"0.00043140","INCLINATION":"54.9394","RA_OF_ASC_NODE":"170.3735","ARG_OF_PERICENTER":"271.2574","MEAN_ANOMALY":"88.6502","EPHEMERIS_TYPE":"0","CLASSIFICATION_TYPE":"U","NORAD_CAT_ID":"38857","ELEMENT_SET_NO":"999","REV_AT_EPOCH":"4249","BSTAR":"0.00000000000000","MEAN_MOTION_DOT":"-0.00000009","MEAN_MOTION_DDOT":"0.0000000000000","SEMIMAJOR_AXIS":"29600.341","PERIOD":"844.704","APOAPSIS":"23234.975","PERIAPSIS":"23209.436","OBJECT_TYPE":"PAYLOAD","RCS_SIZE":"LARGE","COUNTRY_CODE":"ESA","LAUNCH_DATE":"2012-10-12","SITE":"FRGUI","DECAY_DATE":null,"FILE":"2534591","GP_ID":"136684486","TLE_LINE0":"0 GALILEO-FM3","TLE_LINE1":"1 38857U 12055A   19222.51823602 -.00000009  00000-0  00000+0 0  9996","TLE_LINE2":"2 38857  54.9394 170.3735 0004314 271.2574  88.6502  1.70473818 42490"},{"CCSDS_OMM_VERS":"2.0","COMMENT":"GENERATED VIA SPACE-TRACK.ORG API","CREATION_DATE":"2019-08-13T06:20:13","ORIGINATOR":"18 SPCS","OBJECT_NAME":"GALILEO-FM3","OBJECT_ID":"2012-055A","CENTER_NAME":"EARTH","REF_FRAME":"TEME","TIME_SYSTEM":"UTC","MEAN_ELEMENT_THEORY":"SGP4","EPOCH":"2019-08-12T20:44:58.022016","MEAN_MOTION":"1.70473870","ECCENTRICITY":"0.00042460","INCLINATION":"54.9395","RA_OF_ASC_NODE":"170.3089","ARG_OF_PERICENTER":"271.1751","MEAN_ANOMALY":"88.7267","EPHEMERIS_TYPE":"0","CLASSIFICATION_TYPE":"U","NORAD_CAT_ID":"38857","ELEMENT_SET_NO":"999","REV_AT_EPOCH":"4253","BSTAR":"0.00000000000000","MEAN_MOTION_DOT":"-0.00000019","MEAN_MOTION_DDOT":"0.0000000000000","SEMIMAJOR_AXIS":"29600.335","PERIOD":"844.704","APOAPSIS":"23234.768","PERIAPSIS":"23209.631","OBJECT_TYPE":"PAYLOAD","RCS_SIZE":"LARGE","COUNTRY_CODE":"ESA","LAUNCH_DATE":"2012-10-12","SITE":"FRGUI","DECAY_DATE":null,"FILE":"2535735","GP_ID":"136802012","TLE_LINE0":"0 GALILEO-FM3","TLE_LINE1":"1 38857U 12055A   19224.86456044 -.00000019  00000-0  00000+0 0  9999","TLE_LINE2":"2 38857  54.9395 170.3089 0004246 271.1751  88.7267  1.70473870 42535"},{"CCSDS_OMM_VERS":"2.0","COMMENT":"GENERATED VIA SPACE-TRACK.ORG API","CREATION_DATE":"2019-08-14T04:53:41","ORIGINATOR":"18 SPCS","OBJECT_NAME":"GALILEO-FM3","OBJECT_ID":"2012-055A","CENTER_NAME":"EARTH","REF_FRAME":"TEME","TIME_SYSTEM":"UTC","MEAN_ELEMENT_THEORY":"SGP4","EPOCH":"2019-08-12T20:44:58.034976","MEAN_MOTION":"1.70473874","ECCENTRICITY":"0.00042410","INCLINATION":"54.9395","RA_OF_ASC_NODE":"170.3089","ARG_OF_PERICENTER":"271.1719","MEAN_ANOMALY":"88.7301","EPHEMERIS_TYPE":"0","CLASSIFICATION_TYPE":"U","NORAD_CAT_ID":"38857","ELEMENT_SET_NO":"999","REV_AT_EPOCH":"4253","BSTAR":"0.00000000000000","MEAN_MOTION_DOT":"-0.00000019","MEAN_MOTION_DDOT":"0.0000000000000","SEMIMAJOR_AXIS":"29600.334","PERIOD":"844.704","APOAPSIS":"23234.753","PERIAPSIS":"23209.646","OBJECT_TYPE":"PAYLOAD","RCS_SIZE":"LARGE","COUNTRY_CODE":"ESA","LAUNCH_DATE":"2012-10-12","SITE":"FRGUI","DECAY_DATE":null,"FILE":"2536219","GP_ID":"136844397","TLE_LINE0":"0 GALILEO-FM3","TLE_LINE1":"1 38857U 12055A   19224.86456059 -.00000019 +00000-0 +00000-0 0  9996","TLE_LINE2":"2 38857 054.9395 170.3089 0004241 271.1719 088.7301 01.70473874042537"},{"CCSDS_OMM_VERS":"2.0","COMMENT":"GENERATED VIA SPACE-TRACK.ORG API","CREATION_DATE":"2019-08-15T21:10:20","ORIGINATOR":"18 SPCS","OBJECT_NAME":"GALILEO-FM3","OBJECT_ID":"2012-055A","CENTER_NAME":"EARTH","REF_FRAME":"TEME","TIME_SYSTEM":"UTC","MEAN_ELEMENT_THEORY":"SGP4","EPOCH":"2019-08-15T05:03:41.931936","MEAN_MOTION":"1.70473921","ECCENTRICITY":"0.00041790","INCLINATION":"54.9395","RA_OF_ASC_NODE":"170.2444","ARG_OF_PERICENTER":"271.2170","MEAN_ANOMALY":"88.6897","EPHEMERIS_TYPE":"0","CLASSIFICATION_TYPE":"U","NORAD_CAT_ID":"38857","ELEMENT_SET_NO":"999","REV_AT_EPOCH":"4257","BSTAR":"0.00000000000000","MEAN_MOTION_DOT":"-0.00000012","MEAN_MOTION_DDOT":"0.0000000000000","SEMIMAJOR_AXIS":"29600.329","PERIOD":"844.703","APOAPSIS":"23234.564","PERIAPSIS":"23209.824","OBJECT_TYPE":"PAYLOAD","RCS_SIZE":"LARGE","COUNTRY_CODE":"ESA","LAUNCH_DATE":"2012-10-12","SITE":"FRGUI","DECAY_DATE":null,"FILE":"2538445","GP_ID":"136972608","TLE_LINE0":"0 GALILEO-FM3","TLE_LINE1":"1 38857U 12055A   19227.21090199 -.00000012  00000-0  00000+0 0  9999","TLE_LINE2":"2 38857  54.9395 170.2444 0004179 271.2170  88.6897  1.70473921 42579"},{"CCSDS_OMM_VERS":"2.0","COMMENT":"GENERATED VIA SPACE-TRACK.ORG API","CREATION_DATE":"2019-08-17T03:53:46","ORIGINATOR":"18 SPCS","OBJECT_NAME":"GALILEO-FM3","OBJECT_ID":"2012-055A","CENTER_NAME":"EARTH","REF_FRAME":"TEME","TIME_SYSTEM":"UTC","MEAN_ELEMENT_THEORY":"SGP4","EPOCH":"2019-08-15T19:08:23.143776","MEAN_MOTION":"1.70473929","ECCENTRICITY":"0.00041650","INCLINATION":"54.9394","RA_OF_ASC_NODE":"170.2283","ARG_OF_PERICENTER":"271.1269","MEAN_ANOMALY":"88.7828","EPHEMERIS_TYPE":"0","CLASSIFICATION_TYPE":"U","NORAD_CAT_ID":"38857","ELEMENT_SET_NO":"999","REV_AT_EPOCH":"4258","BSTAR":"0.00000000000000","MEAN_MOTION_DOT":"-0.00000009","MEAN_MOTION_DDOT":"0.0000000000000","SEMIMAJOR_AXIS":"29600.328","PERIOD":"844.703","APOAPSIS":"23234.521","PERIAPSIS":"23209.864","OBJECT_TYPE":"PAYLOAD","RCS_SIZE":"LARGE","COUNTRY_CODE":"ESA","LAUNCH_DATE":"2012-10-12","SITE":"FRGUI","DECAY_DATE":null,"FILE":"2540534","GP_ID":"137068375","TLE_LINE0":"0 GALILEO-FM3","TLE_LINE1":"1 38857U 12055A   19227.79749009 -.00000009 +00000-0 +00000-0 0  9990","TLE_LINE2":"2 38857 054.9394 170.2283 0004165 271.1269 088.7828 01.70473929042586"},{"CCSDS_OMM_VERS":"2.0","COMMENT":"GENERATED VIA SPACE-TRACK.ORG API","CREATION_DATE":"2019-08-20T04:43:20","ORIGINATOR":"18 SPCS","OBJECT_NAME":"GALILEO-FM3","OBJECT_ID":"2012-055A","CENTER_NAME":"EARTH","REF_FRAME":"TEME","TIME_SYSTEM":"UTC","MEAN_ELEMENT_THEORY":"SGP4","EPOCH":"2019-08-16T23:17:45.797280","MEAN_MOTION":"1.70473937","ECCENTRICITY":"0.00041200","INCLINATION":"54.9394","RA_OF_ASC_NODE":"170.1960","ARG_OF_PERICENTER":"271.2459","MEAN_ANOMALY":"88.6713","EPHEMERIS_TYPE":"0","CLASSIFICATION_TYPE":"U","NORAD_CAT_ID":"38857","ELEMENT_SET_NO":"999","REV_AT_EPOCH":"4260","BSTAR":"0.00000000000000","MEAN_MOTION_DOT":"-0.00000002","MEAN_MOTION_DDOT":"0.0000000000000","SEMIMAJOR_AXIS":"29600.327","PERIOD":"844.703","APOAPSIS":"23234.387","PERIAPSIS":"23209.997","OBJECT_TYPE":"PAYLOAD","RCS_SIZE":"LARGE","COUNTRY_CODE":"ESA","LAUNCH_DATE":"2012-10-12","SITE":"FRGUI","DECAY_DATE":null,"FILE":"2582590","GP_ID":"137559370","TLE_LINE0":"0 GALILEO-FM3","TLE_LINE1":"1 38857U 12055A   19228.97066895 -.00000002 +00000-0 +00000-0 0  9999","TLE_LINE2":"2 38857 054.9394 170.1960 0004120 271.2459 088.6713 01.70473937042604"},{"CCSDS_OMM_VERS":"2.0","COMMENT":"GENERATED VIA SPACE-TRACK.ORG API","CREATION_DATE":"2019-08-20T06:20:16","ORIGINATOR":"18 SPCS","OBJECT_NAME":"GALILEO-FM3","OBJECT_ID":"2012-055A","CENTER_NAME":"EARTH","REF_FRAME":"TEME","TIME_SYSTEM":"UTC","MEAN_ELEMENT_THEORY":"SGP4","EPOCH":"2019-08-19T21:41:12.755904","MEAN_MOTION":"1.70473911","ECCENTRICITY":"0.00040060","INCLINATION":"54.9396","RA_OF_ASC_NODE":"170.1152","ARG_OF_PERICENTER":"271.5020","MEAN_ANOMALY":"88.4364","EPHEMERIS_TYPE":"0","CLASSIFICATION_TYPE":"U","NORAD_CAT_ID":"38857","ELEMENT_SET_NO":"999","REV_AT_EPOCH":"4265","BSTAR":"0.00000000000000","MEAN_MOTION_DOT":"0.00000015","MEAN_MOTION_DDOT":"0.0000000000000","SEMIMAJOR_AXIS":"29600.330","PERIOD":"844.704","APOAPSIS":"23234.053","PERIAPSIS":"23210.337","OBJECT_TYPE":"PAYLOAD","RCS_SIZE":"LARGE","COUNTRY_CODE":"ESA","LAUNCH_DATE":"2012-10-12","SITE":"FRGUI","DECAY_DATE":null,"FILE":"2582623","GP_ID":"137564516","TLE_LINE0":"0 GALILEO-FM3","TLE_LINE1":"1 38857U 12055A   19231.90361986  .00000015  00000-0  00000+0 0  9997","TLE_LINE2":"2 38857  54.9396 170.1152 0004006 271.5020  88.4364  1.70473911 42656"}]